[{"OBJECT_NAME":"PROBA-V","OBJECT_ID":"2013-021A","EPOCH":"2026-03-09T22:43:07.567104","MEAN_MOTION":14.2357369,"ECCENTRICITY":0.00052918,"INCLINATION":98.3507,"RA_OF_ASC_NODE":52.496,"ARG_OF_PERICENTER":69.2213,"MEAN_ANOMALY":290.9533,"EPHEMERIS_TYPE":0,"CLASSIFICATION_TYPE":"U","NORAD_CAT_ID":39159,"ELEMENT_SET_NO":999,"REV_AT_EPOCH":66699,"BSTAR":6.8440241e-5,"MEAN_MOTION_DOT":1.15e-6,"MEAN_MOTION_DDOT":0},{"OBJECT_NAME":"CZ-6A DEB","OBJECT_ID":"2024-140AFA","EPOCH":"2026-03-09T10:56:40.763904","MEAN_MOTION":14.31819631,"ECCENTRICITY":0.00406106,"INCLINATION":88.325,"RA_OF_ASC_NODE":238.6428,"ARG_OF_PERICENTER":51.9498,"MEAN_ANOMALY":308.5351,"EPHEMERIS_TYPE":0,"CLASSIFICATION_TYPE":"U","NORAD_CAT_ID":64660,"ELEMENT_SET_NO":999,"REV_AT_EPOCH":7180,"BSTAR":0.0014957611,"MEAN_MOTION_DOT":4.05e-5,"MEAN_MOTION_DDOT":0}]
